2024-166B               
1 61180U 24166B   26067.67341263  .00038147  00000+0  25198-3 0  9998
2 61180  96.6921 322.5475 0002182 351.2198   8.9031 15.75502359 84916
STARLINK-11501 [DTC]    
1 62268U 24237B   26068.94503307  .00212557  00000+0  16123-2 0  9991
2 62268  42.9996  54.9640 0001067 217.8116 142.2676 15.70924261 73042
