[{"OBJECT_NAME":"OBJECT B","OBJECT_ID":"2024-166B","EPOCH":"2026-03-08T16:09:42.851232","MEAN_MOTION":15.75502359,"ECCENTRICITY":0.0002182,"INCLINATION":96.6921,"RA_OF_ASC_NODE":322.5475,"ARG_OF_PERICENTER":351.2198,"MEAN_ANOMALY":8.9031,"EPHEMERIS_TYPE":0,"CLASSIFICATION_TYPE":"U","NORAD_CAT_ID":61180,"ELEMENT_SET_NO":999,"REV_AT_EPOCH":8491,"BSTAR":0.00025198,"MEAN_MOTION_DOT":0.00038147,"MEAN_MOTION_DDOT":0},{"OBJECT_NAME":"STARLINK-11501 [DTC]","OBJECT_ID":"2024-237B","EPOCH":"2026-03-09T22:40:50.857248","MEAN_MOTION":15.70924261,"ECCENTRICITY":0.00010671,"INCLINATION":42.9996,"RA_OF_ASC_NODE":54.964,"ARG_OF_PERICENTER":217.8116,"MEAN_ANOMALY":142.2676,"EPHEMERIS_TYPE":0,"CLASSIFICATION_TYPE":"U","NORAD_CAT_ID":62268,"ELEMENT_SET_NO":999,"REV_AT_EPOCH":7304,"BSTAR":0.0016122815,"MEAN_MOTION_DOT":0.00212557,"MEAN_MOTION_DDOT":0}]
